{"type":"FeatureCollection","features":[{"type":"Feature","geometry":{"type":"Polygon","coordinates":[[[113.681521,-7.055289],[113.681468,-7.055483],[113.681814,-7.055524],[113.681867,-7.055371],[113.681521,-7.055289]]]},"properties":{"area":"sawah","ID":"S001"}},{"type":"Feature","geometry":{"type":"Polygon","coordinates":[[[113.68081,-7.055319],[113.680806,-7.055543],[113.681126,-7.055554],[113.681103,-7.055282],[113.68081,-7.055319]]]},"properties":{"area":"sawah","ID":"S002"}},{"type":"Feature","geometry":{"type":"Polygon","coordinates":[[[113.674192,-7.06098],[113.674063,-7.06144],[113.673852,-7.061469],[113.674069,-7.061742],[113.674485,-7.061742],[113.674707,-7.061661],[113.674936,-7.061742],[113.675112,-7.061399],[113.675059,-7.061231],[113.675082,-7.061167],[113.674192,-7.06098]]]},"properties":{"area":"sawah","ID":"S013"}},{"type":"Feature","geometry":{"type":"Polygon","coordinates":[[[113.676547,-7.061707],[113.676524,-7.061678],[113.676553,-7.061841],[113.676413,-7.062097],[113.676377,-7.062504],[113.676448,-7.062615],[113.676659,-7.062661],[113.676729,-7.062859],[113.677145,-7.062766],[113.676981,-7.062463],[113.67694,-7.061888],[113.676911,-7.061649],[113.676547,-7.061707]]]},"properties":{"area":"sawah","ID":"S014"}},{"type":"Feature","geometry":{"type":"Polygon","coordinates":[[[113.670385,-7.063703],[113.670267,-7.063949],[113.670829,-7.064039],[113.670901,-7.063802],[113.670385,-7.063703]]]},"properties":{"area":"sawah","ID":"S015"}},{"type":"Feature","geometry":{"type":"Polygon","coordinates":[[[113.670258,-7.063991],[113.67024,-7.064135],[113.670663,-7.064267],[113.670699,-7.064045],[113.670285,-7.063967],[113.670258,-7.063991]]]},"properties":{"area":"sawah","ID":"S016"}},{"type":"Feature","geometry":{"type":"Polygon","coordinates":[[[113.670291,-7.064322],[113.670243,-7.064689],[113.67089,-7.06486],[113.670894,-7.064581],[113.67062,-7.064428],[113.670367,-7.064316],[113.670291,-7.064322]]]},"properties":{"area":"sawah","ID":"S017"}},{"type":"Feature","geometry":{"type":"Polygon","coordinates":[[[113.664211,-7.060861],[113.664229,-7.061016],[113.664407,-7.061055],[113.664399,-7.061251],[113.664587,-7.06132],[113.664705,-7.061325],[113.664754,-7.061116],[113.664828,-7.060932],[113.664211,-7.060861]]]},"properties":{"area":"sawah","ID":"S018"}},{"type":"Feature","geometry":{"type":"Polygon","coordinates":[[[113.66425,-7.060649],[113.664217,-7.06083],[113.664826,-7.060904],[113.664849,-7.060715],[113.66454,-7.060659],[113.66425,-7.060649]]]},"properties":{"area":"sawah","ID":"S019"}},{"type":"Feature","geometry":{"type":"Polygon","coordinates":[[[113.665273,-7.059803],[113.66528,-7.059945],[113.665504,-7.060032],[113.665704,-7.060014],[113.66581,-7.059961],[113.665776,-7.05979],[113.665273,-7.059803]]]},"properties":{"area":"sawah","ID":"S020"}},{"type":"Feature","geometry":{"type":"Polygon","coordinates":[[[113.682186,-7.060695],[113.682075,-7.061099],[113.682401,-7.061141],[113.682434,-7.060937],[113.682554,-7.060771],[113.682186,-7.060695]]]},"properties":{"area":"sawah","ID":"S021"}},{"type":"Feature","geometry":{"type":"Polygon","coordinates":[[[113.681683,-7.061303],[113.681592,-7.061531],[113.682047,-7.061635],[113.682133,-7.061355],[113.681884,-7.061274],[113.681659,-7.061284],[113.681683,-7.061303]]]},"properties":{"area":"sawah","ID":"S022"}},{"type":"Feature","geometry":{"type":"Polygon","coordinates":[[[113.679788,-7.060472],[113.679683,-7.060828],[113.679956,-7.06088],[113.680099,-7.060572],[113.679788,-7.060472]]]},"properties":{"area":"sawah","ID":"S023"}},{"type":"Feature","geometry":{"type":"Polygon","coordinates":[[[113.668141,-7.060822],[113.668138,-7.060806],[113.668109,-7.060988],[113.668128,-7.061142],[113.668348,-7.061165],[113.668634,-7.061228],[113.668734,-7.060962],[113.668482,-7.060887],[113.668319,-7.060868],[113.668141,-7.060822]]]},"properties":{"area":"sawah","ID":"S024"}},{"type":"Feature","geometry":{"type":"Polygon","coordinates":[[[113.666817,-7.05837],[113.666755,-7.058592],[113.667102,-7.058673],[113.667164,-7.058551],[113.66718,-7.058499],[113.667135,-7.058364],[113.666817,-7.05837]]]},"properties":{"area":"sawah","ID":"S028"}},{"type":"Feature","geometry":{"type":"Polygon","coordinates":[[[113.667209,-7.058586],[113.667125,-7.058747],[113.667151,-7.059146],[113.667436,-7.059175],[113.667579,-7.058708],[113.667209,-7.058586]]]},"properties":{"area":"sawah","ID":"S030"}},{"type":"Feature","geometry":{"type":"Polygon","coordinates":[[[113.665469,-7.055405],[113.665378,-7.055608],[113.665727,-7.05571],[113.665833,-7.055511],[113.665469,-7.055405]]]},"properties":{"area":"sawah","ID":"S031"}},{"type":"Feature","geometry":{"type":"Polygon","coordinates":[[[113.664447,-7.055507],[113.664349,-7.0558],[113.664773,-7.055931],[113.664909,-7.055605],[113.664716,-7.055518],[113.664428,-7.055484],[113.664447,-7.055507]]]},"properties":{"area":"sawah","ID":"S032"}},{"type":"Feature","geometry":{"type":"Polygon","coordinates":[[[113.666585,-7.053288],[113.666412,-7.053558],[113.666781,-7.053673],[113.666924,-7.053491],[113.666722,-7.053478],[113.666779,-7.053333],[113.666585,-7.053288]]]},"properties":{"area":"sawah","ID":"S036"}},{"type":"Feature","geometry":{"type":"Polygon","coordinates":[[[113.660897,-7.059597],[113.660808,-7.059658],[113.66082,-7.059734],[113.660977,-7.059807],[113.6609,-7.060086],[113.661105,-7.060109],[113.66127,-7.059948],[113.661455,-7.059772],[113.66117,-7.059635],[113.660897,-7.059597]]]},"properties":{"area":"sawah","ID":"S043"}},{"type":"Feature","geometry":{"type":"Polygon","coordinates":[[[113.661594,-7.055855],[113.66158,-7.056056],[113.662127,-7.056342],[113.662179,-7.056103],[113.661905,-7.055907],[113.661594,-7.055855]]]},"properties":{"area":"sawah","ID":"S044"}},{"type":"Feature","geometry":{"type":"Polygon","coordinates":[[[113.664094,-7.050893],[113.663991,-7.051314],[113.664326,-7.051442],[113.664436,-7.050999],[113.664094,-7.050893]]]},"properties":{"area":"sawah","ID":"S045"}},{"type":"Feature","geometry":{"type":"Polygon","coordinates":[[[113.674442,-7.05163],[113.674505,-7.051506],[113.674035,-7.051355],[113.673966,-7.051707],[113.674183,-7.051725],[113.674366,-7.051809],[113.674442,-7.05163]]]},"properties":{"area":"sawah","ID":"S049"}},{"type":"Feature","geometry":{"type":"Polygon","coordinates":[[[113.675588,-7.052058],[113.675489,-7.052342],[113.676032,-7.052518],[113.676191,-7.052518],[113.676137,-7.05226],[113.675588,-7.052058]]]},"properties":{"area":"sawah","ID":"S050"}},{"type":"Feature","geometry":{"type":"Polygon","coordinates":[[[113.673587,-7.04927],[113.66764,-7.050158],[113.666744,-7.049908],[113.663299,-7.049155],[113.662702,-7.052255],[113.661531,-7.051981],[113.658959,-7.051434],[113.657604,-7.052779],[113.657214,-7.054238],[113.655538,-7.05524],[113.65553,-7.058471],[113.657,-7.059451],[113.658401,-7.059565],[113.660156,-7.061021],[113.659674,-7.062711],[113.661563,-7.062785],[113.664081,-7.067121],[113.667895,-7.069069],[113.671594,-7.069823],[113.676247,-7.071216],[113.679897,-7.069375],[113.679762,-7.067699],[113.680124,-7.067249],[113.680216,-7.066743],[113.679343,-7.066694],[113.67896,-7.066479],[113.678898,-7.066037],[113.678545,-7.065625],[113.678198,-7.065478],[113.678229,-7.065171],[113.678799,-7.06436],[113.678551,-7.064157],[113.678766,-7.063844],[113.678673,-7.063488],[113.678723,-7.063264],[113.678757,-7.063129],[113.684585,-7.063087],[113.684342,-7.062092],[113.685215,-7.059292],[113.686538,-7.055993],[113.687168,-7.054168],[113.68756,-7.05236],[113.686374,-7.05265],[113.684092,-7.052886],[113.68273,-7.053089],[113.682134,-7.052278],[113.678899,-7.050318],[113.677997,-7.050352],[113.676941,-7.049895],[113.673587,-7.04927]]]},"properties":{"area":""}},{"type":"Feature","geometry":{"type":"Polygon","coordinates":[[[113.681622,-7.05589],[113.681532,-7.056211],[113.681682,-7.056245],[113.681769,-7.056118],[113.681822,-7.055924],[113.681622,-7.05589]]]},"properties":{"area":"sawah","ID":"S003"}},{"type":"Feature","geometry":{"type":"Polygon","coordinates":[[[113.680832,-7.055834],[113.680847,-7.055857],[113.680885,-7.055961],[113.680847,-7.056036],[113.68099,-7.056021],[113.681032,-7.055857],[113.680832,-7.055834]]]},"properties":{"area":"sawah","ID":"S004"}},{"type":"Feature","geometry":{"type":"Polygon","coordinates":[[[113.679786,-7.056054],[113.679651,-7.056178],[113.679711,-7.056286],[113.679752,-7.056394],[113.679959,-7.05651],[113.68023,-7.056547],[113.680242,-7.05611],[113.679786,-7.056054]]]},"properties":{"area":"sawah","ID":"S005"}},{"type":"Feature","geometry":{"type":"Polygon","coordinates":[[[113.677999,-7.055627],[113.677975,-7.055603],[113.678028,-7.055897],[113.678238,-7.055902],[113.67832,-7.055791],[113.678311,-7.055598],[113.678184,-7.055569],[113.677999,-7.055627]]]},"properties":{"area":"sawah","ID":"S006"}},{"type":"Feature","geometry":{"type":"Polygon","coordinates":[[[113.67905,-7.056728],[113.679026,-7.056964],[113.679352,-7.057027],[113.679658,-7.057109],[113.679775,-7.057008],[113.679609,-7.056873],[113.67923,-7.056675],[113.67905,-7.056728]]]},"properties":{"area":"sawah","ID":"S007"}},{"type":"Feature","geometry":{"type":"Polygon","coordinates":[[[113.678982,-7.05513],[113.678865,-7.055328],[113.678875,-7.0554],[113.679142,-7.055468],[113.679191,-7.055284],[113.679196,-7.055202],[113.678996,-7.055067],[113.678948,-7.055115],[113.678982,-7.05513]]]},"properties":{"area":"sawah","ID":"S008"}},{"type":"Feature","geometry":{"type":"Polygon","coordinates":[[[113.680433,-7.057173],[113.680606,-7.057217],[113.680951,-7.057344],[113.681006,-7.057085],[113.680653,-7.05707],[113.680452,-7.057084],[113.680433,-7.057173]]]},"properties":{"area":"sawah","ID":"S009"}},{"type":"Feature","geometry":{"type":"Polygon","coordinates":[[[113.68,-7.056806],[113.679899,-7.056886],[113.680227,-7.056988],[113.680259,-7.05686],[113.68,-7.056806]]]},"properties":{"area":"sawah","ID":"S010"}},{"type":"Feature","geometry":{"type":"Polygon","coordinates":[[[113.676699,-7.05874],[113.676482,-7.059089],[113.676852,-7.059263],[113.67697,-7.059032],[113.676735,-7.058951],[113.676805,-7.058718],[113.676699,-7.05874]]]},"properties":{"area":"sawah","ID":"S011"}},{"type":"Feature","geometry":{"type":"Polygon","coordinates":[[[113.677884,-7.058794],[113.677737,-7.058776],[113.677649,-7.058898],[113.677649,-7.059096],[113.677632,-7.059323],[113.677931,-7.059323],[113.678118,-7.058811],[113.677884,-7.058794]]]},"properties":{"area":"sawah","ID":"S012"}},{"type":"Feature","geometry":{"type":"Polygon","coordinates":[[[113.681613,-7.056571],[113.68155,-7.056716],[113.681583,-7.056947],[113.68163,-7.057017],[113.681966,-7.056994],[113.681986,-7.056617],[113.681613,-7.056571]]]},"properties":{"area":"permukiman","ID":"P001"}},{"type":"Feature","geometry":{"type":"Polygon","coordinates":[[[113.682006,-7.05663],[113.68199,-7.056987],[113.682279,-7.057057],[113.682476,-7.056825],[113.682343,-7.056627],[113.682006,-7.05663]]]},"properties":{"area":"permukiman","ID":"P002"}},{"type":"Feature","geometry":{"type":"Polygon","coordinates":[[[113.683105,-7.057291],[113.682779,-7.057245],[113.682439,-7.057119],[113.682276,-7.057446],[113.682283,-7.057704],[113.682789,-7.057843],[113.683105,-7.057291]]]},"properties":{"area":"permukiman","ID":"P003"}},{"type":"Feature","geometry":{"type":"Polygon","coordinates":[[[113.681976,-7.05703],[113.681827,-7.057542],[113.682033,-7.057661],[113.682086,-7.057995],[113.682243,-7.057978],[113.682249,-7.057698],[113.682243,-7.057436],[113.682139,-7.057351],[113.682286,-7.057066],[113.681976,-7.05703]]]},"properties":{"area":"permukiman","ID":"P004"}},{"type":"Feature","geometry":{"type":"Polygon","coordinates":[[[113.683742,-7.055217],[113.683609,-7.055563],[113.683901,-7.055642],[113.684443,-7.055931],[113.684553,-7.055489],[113.684271,-7.055336],[113.683945,-7.055318],[113.683742,-7.055217]]]},"properties":{"area":"permukiman","ID":"P005"}},{"type":"Feature","geometry":{"type":"Polygon","coordinates":[[[113.683098,-7.055808],[113.683115,-7.05618],[113.683583,-7.056163],[113.683583,-7.055843],[113.683098,-7.055808]]]},"properties":{"area":"permukiman","ID":"P006"}},{"type":"Feature","geometry":{"type":"Polygon","coordinates":[[[113.683592,-7.055629],[113.683627,-7.056137],[113.684073,-7.056268],[113.684174,-7.055813],[113.683892,-7.055651],[113.683592,-7.055629]]]},"properties":{"area":"permukiman","ID":"P007"}},{"type":"Feature","geometry":{"type":"Polygon","coordinates":[[[113.684761,-7.055975],[113.684681,-7.056386],[113.684915,-7.056509],[113.685285,-7.056299],[113.685228,-7.055992],[113.684761,-7.055975]]]},"properties":{"area":"permukiman","ID":"P008"}},{"type":"Feature","geometry":{"type":"Polygon","coordinates":[[[113.675545,-7.059986],[113.675195,-7.060265],[113.675188,-7.060488],[113.675276,-7.060916],[113.676032,-7.061164],[113.676363,-7.060953],[113.676613,-7.060228],[113.676057,-7.060209],[113.675545,-7.059986]]]},"properties":{"area":"permukiman","ID":"P009"}},{"type":"Feature","geometry":{"type":"Polygon","coordinates":[[[113.677262,-7.059665],[113.677022,-7.05974],[113.676746,-7.060165],[113.676975,-7.060275],[113.676987,-7.060339],[113.678153,-7.060612],[113.678223,-7.060409],[113.677801,-7.06031],[113.677825,-7.059938],[113.677537,-7.059839],[113.677537,-7.059624],[113.677262,-7.059665]]]},"properties":{"area":"permukiman","ID":"P010"}},{"type":"Feature","geometry":{"type":"Polygon","coordinates":[[[113.673793,-7.058926],[113.673687,-7.059066],[113.673805,-7.059188],[113.673805,-7.059444],[113.673992,-7.059601],[113.67449,-7.059478],[113.67449,-7.059211],[113.674566,-7.059083],[113.674402,-7.059031],[113.674027,-7.058496],[113.673793,-7.058554],[113.673793,-7.058926]]]},"properties":{"area":"permukiman","ID":"P011"}},{"type":"Feature","geometry":{"type":"Polygon","coordinates":[[[113.672755,-7.059321],[113.672621,-7.059746],[113.673072,-7.05992],[113.673476,-7.059856],[113.673441,-7.059333],[113.672755,-7.059321]]]},"properties":{"area":"permukiman","ID":"P012"}},{"type":"Feature","geometry":{"type":"Polygon","coordinates":[[[113.668178,-7.060433],[113.668183,-7.060759],[113.668159,-7.060811],[113.668435,-7.060868],[113.668734,-7.060944],[113.668766,-7.060835],[113.668855,-7.06073],[113.668878,-7.060637],[113.668647,-7.060452],[113.6685,-7.060397],[113.66833,-7.060384],[113.668178,-7.060433]]]},"properties":{"area":"sawah","ID":"S025"}},{"type":"Feature","geometry":{"type":"Polygon","coordinates":[[[113.666957,-7.060392],[113.666871,-7.060457],[113.666816,-7.060715],[113.667033,-7.060743],[113.667146,-7.060663],[113.667199,-7.060543],[113.667117,-7.0604],[113.666957,-7.060392]]]},"properties":{"area":"sawah","ID":"S026"}},{"type":"Feature","geometry":{"type":"Polygon","coordinates":[[[113.668123,-7.058933],[113.668091,-7.059226],[113.668032,-7.059448],[113.668074,-7.05957],[113.668194,-7.059515],[113.668457,-7.059503],[113.668528,-7.059158],[113.668321,-7.059187],[113.668123,-7.058933]]]},"properties":{"area":"sawah","ID":"S027"}},{"type":"Feature","geometry":{"type":"Polygon","coordinates":[[[113.672645,-7.059806],[113.672645,-7.060149],[113.672944,-7.060591],[113.673207,-7.060568],[113.673207,-7.060469],[113.673565,-7.060463],[113.673576,-7.059974],[113.673389,-7.059928],[113.673096,-7.059969],[113.672645,-7.059806]]]},"properties":{"area":"permukiman","ID":"P013"}},{"type":"Feature","geometry":{"type":"Polygon","coordinates":[[[113.667306,-7.058268],[113.667258,-7.058422],[113.667183,-7.058448],[113.667203,-7.058557],[113.667608,-7.058679],[113.667741,-7.058403],[113.667504,-7.058322],[113.667306,-7.058268]]]},"properties":{"area":"sawah","ID":"S029"}},{"type":"Feature","geometry":{"type":"Polygon","coordinates":[[[113.670141,-7.062025],[113.669812,-7.062609],[113.669965,-7.06272],[113.670365,-7.06223],[113.670141,-7.062025]]]},"properties":{"area":"permukiman","ID":"P014"}},{"type":"Feature","geometry":{"type":"Polygon","coordinates":[[[113.671442,-7.061144],[113.671206,-7.061716],[113.67163,-7.061838],[113.671677,-7.061698],[113.671677,-7.061488],[113.671442,-7.061144]]]},"properties":{"area":"permukiman","ID":"P015"}},{"type":"Feature","geometry":{"type":"Polygon","coordinates":[[[113.672048,-7.063287],[113.671848,-7.064139],[113.671712,-7.064502],[113.672054,-7.064694],[113.672713,-7.064583],[113.673225,-7.064554],[113.673301,-7.064356],[113.673641,-7.064179],[113.673748,-7.063769],[113.674389,-7.063945],[113.674428,-7.063677],[113.674204,-7.063639],[113.674374,-7.063263],[113.673988,-7.063102],[113.673115,-7.062742],[113.672876,-7.063064],[113.672567,-7.063026],[113.672459,-7.063302],[113.672048,-7.063287]]]},"properties":{"area":"permukiman","ID":"P016"}},{"type":"Feature","geometry":{"type":"Polygon","coordinates":[[[113.663442,-7.05575],[113.663336,-7.055828],[113.663328,-7.055944],[113.663374,-7.056046],[113.663828,-7.056184],[113.663911,-7.056087],[113.663885,-7.056008],[113.663442,-7.05575]]]},"properties":{"area":"sawah","ID":"S033"}},{"type":"Feature","geometry":{"type":"Polygon","coordinates":[[[113.664521,-7.054785],[113.664364,-7.055279],[113.664439,-7.055447],[113.664722,-7.055492],[113.664926,-7.055592],[113.665085,-7.055587],[113.665194,-7.055179],[113.664863,-7.055071],[113.664931,-7.054877],[113.664521,-7.054785]]]},"properties":{"area":"sawah","ID":"S034"}},{"type":"Feature","geometry":{"type":"Polygon","coordinates":[[[113.665474,-7.053017],[113.665374,-7.05356],[113.665755,-7.053635],[113.6658,-7.053518],[113.665817,-7.053314],[113.665693,-7.053282],[113.665663,-7.053282],[113.665711,-7.053058],[113.665474,-7.053017]]]},"properties":{"area":"sawah","ID":"S035"}},{"type":"Feature","geometry":{"type":"Polygon","coordinates":[[[113.664881,-7.061017],[113.664785,-7.061081],[113.664734,-7.061354],[113.664907,-7.061373],[113.665195,-7.061717],[113.665721,-7.061723],[113.665721,-7.061437],[113.665952,-7.061437],[113.66599,-7.061011],[113.665465,-7.060871],[113.665291,-7.061106],[113.664881,-7.061017]]]},"properties":{"area":"permukiman","ID":"P017"}},{"type":"Feature","geometry":{"type":"Polygon","coordinates":[[[113.672224,-7.052193],[113.672081,-7.052433],[113.672704,-7.052738],[113.672808,-7.05239],[113.672224,-7.052193]]]},"properties":{"area":"sawah","ID":"S037"}},{"type":"Feature","geometry":{"type":"Polygon","coordinates":[[[113.672397,-7.052622],[113.672246,-7.052969],[113.672475,-7.053047],[113.672566,-7.053059],[113.672725,-7.052776],[113.672397,-7.052622]]]},"properties":{"area":"sawah","ID":"S038"}},{"type":"Feature","geometry":{"type":"Polygon","coordinates":[[[113.672769,-7.052768],[113.67257,-7.053222],[113.672834,-7.053325],[113.672872,-7.053283],[113.672916,-7.052927],[113.673041,-7.052841],[113.672769,-7.052768]]]},"properties":{"area":"sawah","ID":"S039"}},{"type":"Feature","geometry":{"type":"Polygon","coordinates":[[[113.661605,-7.059035],[113.661343,-7.05952],[113.661605,-7.059665],[113.661871,-7.059126],[113.661605,-7.059035]]]},"properties":{"area":"sawah","ID":"S040"}},{"type":"Feature","geometry":{"type":"Polygon","coordinates":[[[113.659514,-7.059275],[113.659483,-7.059279],[113.659818,-7.059367],[113.659926,-7.059207],[113.659945,-7.059084],[113.659533,-7.05923],[113.659514,-7.059275]]]},"properties":{"area":"sawah","ID":"S041"}},{"type":"Feature","geometry":{"type":"Polygon","coordinates":[[[113.659275,-7.059291],[113.659279,-7.059413],[113.659633,-7.059535],[113.659687,-7.059333],[113.659452,-7.059287],[113.659275,-7.059291]]]},"properties":{"area":"sawah","ID":"S042"}},{"type":"Feature","geometry":{"type":"Polygon","coordinates":[[[113.679147,-7.059622],[113.678961,-7.060021],[113.679296,-7.060282],[113.679482,-7.059793],[113.679147,-7.059622]]]},"properties":{"area":"permukiman","ID":"P018"}},{"type":"Feature","geometry":{"type":"Polygon","coordinates":[[[113.678152,-7.059669],[113.678133,-7.059812],[113.678807,-7.060097],[113.678941,-7.060011],[113.67886,-7.059793],[113.678138,-7.059646],[113.678152,-7.059669]]]},"properties":{"area":"permukiman","ID":"P019"}},{"type":"Feature","geometry":{"type":"Polygon","coordinates":[[[113.682832,-7.060293],[113.682764,-7.060581],[113.683185,-7.060731],[113.683241,-7.060352],[113.682832,-7.060293]]]},"properties":{"area":"permukiman","ID":"P020"}},{"type":"Feature","geometry":{"type":"Polygon","coordinates":[[[113.663973,-7.051321],[113.663823,-7.051806],[113.664172,-7.051941],[113.664337,-7.051484],[113.663973,-7.051321]]]},"properties":{"area":"sawah","ID":"S046"}},{"type":"Feature","geometry":{"type":"Polygon","coordinates":[[[113.668135,-7.05122],[113.668206,-7.051658],[113.668785,-7.051698],[113.668866,-7.051381],[113.668666,-7.051334],[113.668393,-7.05122],[113.668135,-7.05122]]]},"properties":{"area":"sawah","ID":"S047"}},{"type":"Feature","geometry":{"type":"Polygon","coordinates":[[[113.667338,-7.050519],[113.667177,-7.050732],[113.667102,-7.050973],[113.667475,-7.05109],[113.667597,-7.050535],[113.667401,-7.05047],[113.667338,-7.050519]]]},"properties":{"area":"sawah","ID":"S048"}},{"type":"Feature","geometry":{"type":"Polygon","coordinates":[[[113.666814,-7.060743],[113.666756,-7.060908],[113.666692,-7.061187],[113.666733,-7.061287],[113.666897,-7.061273],[113.667049,-7.061199],[113.667148,-7.060892],[113.667101,-7.060775],[113.666814,-7.060743]]]},"properties":{"area":"permukiman","ID":"P021"}},{"type":"Feature","geometry":{"type":"Polygon","coordinates":[[[113.667178,-7.060794],[113.667138,-7.06101],[113.667436,-7.061097],[113.66753,-7.06089],[113.667362,-7.060827],[113.667178,-7.060794]]]},"properties":{"area":"permukiman","ID":"P022"}},{"type":"Feature","geometry":{"type":"Polygon","coordinates":[[[113.666606,-7.060545],[113.666573,-7.060666],[113.666763,-7.060689],[113.666787,-7.060556],[113.666725,-7.06052],[113.666606,-7.060545]]]},"properties":{"area":"permukiman","ID":"P023"}},{"type":"Feature","geometry":{"type":"Polygon","coordinates":[[[113.666565,-7.060718],[113.666549,-7.060785],[113.666501,-7.060815],[113.666482,-7.060883],[113.666429,-7.061012],[113.666596,-7.061059],[113.666657,-7.060848],[113.666748,-7.060854],[113.666763,-7.060739],[113.666565,-7.060718]]]},"properties":{"area":"permukiman","ID":"P024"}},{"type":"Feature","geometry":{"type":"Polygon","coordinates":[[[113.666788,-7.058653],[113.666678,-7.058885],[113.666668,-7.059194],[113.666976,-7.059117],[113.667099,-7.058782],[113.667105,-7.058692],[113.666788,-7.058653]]]},"properties":{"area":"permukiman","ID":"P025"}},{"type":"Feature","geometry":{"type":"Polygon","coordinates":[[[113.667629,-7.055639],[113.667467,-7.055982],[113.667575,-7.05627],[113.66757,-7.056479],[113.668288,-7.056723],[113.668398,-7.056509],[113.668473,-7.056084],[113.668603,-7.055847],[113.668591,-7.055629],[113.66819,-7.055481],[113.667629,-7.055639]]]},"properties":{"area":"permukiman","ID":"P026"}},{"type":"Feature","geometry":{"type":"Polygon","coordinates":[[[113.664649,-7.056028],[113.664494,-7.056377],[113.664895,-7.05649],[113.66505,-7.056298],[113.664759,-7.056039],[113.664649,-7.056028]]]},"properties":{"area":"permukiman","ID":"P027"}},{"type":"Feature","geometry":{"type":"Polygon","coordinates":[[[113.663797,-7.055637],[113.663661,-7.055892],[113.663865,-7.055998],[113.664028,-7.056028],[113.664142,-7.055757],[113.663797,-7.055637]]]},"properties":{"area":"permukiman","ID":"P028"}},{"type":"Feature","geometry":{"type":"Polygon","coordinates":[[[113.663972,-7.056049],[113.6639,-7.056218],[113.663968,-7.05641],[113.664153,-7.056466],[113.664233,-7.056372],[113.664328,-7.056106],[113.663972,-7.056049]]]},"properties":{"area":"permukiman","ID":"P029"}},{"type":"Feature","geometry":{"type":"Polygon","coordinates":[[[113.663306,-7.056703],[113.663249,-7.057],[113.663537,-7.05709],[113.663737,-7.057225],[113.663911,-7.057289],[113.664055,-7.057154],[113.664123,-7.056924],[113.663306,-7.056703]]]},"properties":{"area":"permukiman","ID":"P030"}},{"type":"Feature","geometry":{"type":"Polygon","coordinates":[[[113.665738,-7.053044],[113.66569,-7.053263],[113.665862,-7.053312],[113.665819,-7.05352],[113.666245,-7.053665],[113.666313,-7.053566],[113.666463,-7.053352],[113.666571,-7.053258],[113.665738,-7.053044]]]},"properties":{"area":"permukiman","ID":"P031"}},{"type":"Feature","geometry":{"type":"Polygon","coordinates":[[[113.666337,-7.052868],[113.666261,-7.053098],[113.666469,-7.053151],[113.666577,-7.052942],[113.666337,-7.052868]]]},"properties":{"area":"permukiman","ID":"P032"}},{"type":"Feature","geometry":{"type":"Polygon","coordinates":[[[113.666361,-7.053617],[113.666156,-7.053863],[113.666396,-7.053999],[113.666461,-7.053852],[113.666574,-7.053892],[113.666741,-7.053841],[113.6668,-7.0537],[113.666361,-7.053617]]]},"properties":{"area":"permukiman","ID":"P033"}},{"type":"Feature","geometry":{"type":"Polygon","coordinates":[[[113.665822,-7.053577],[113.665649,-7.053689],[113.665609,-7.053839],[113.66569,-7.053906],[113.666075,-7.05398],[113.666191,-7.053694],[113.665822,-7.053577]]]},"properties":{"area":"permukiman","ID":"P034"}},{"type":"Feature","geometry":{"type":"Polygon","coordinates":[[[113.671801,-7.052073],[113.671606,-7.052519],[113.671468,-7.05248],[113.671351,-7.052806],[113.671762,-7.053021],[113.671982,-7.052914],[113.672017,-7.052433],[113.671801,-7.052073]]]},"properties":{"area":"permukiman","ID":"P035"}},{"type":"Feature","geometry":{"type":"Polygon","coordinates":[[[113.671319,-7.052831],[113.67103,-7.053624],[113.671603,-7.053863],[113.671929,-7.05315],[113.671319,-7.052831]]]},"properties":{"area":"permukiman","ID":"P036"}},{"type":"Feature","geometry":{"type":"Polygon","coordinates":[[[113.671019,-7.053703],[113.670767,-7.053916],[113.67059,-7.053948],[113.670499,-7.054192],[113.670724,-7.054304],[113.671635,-7.05457],[113.671753,-7.054288],[113.671356,-7.05416],[113.671474,-7.053847],[113.671019,-7.053703]]]},"properties":{"area":"permukiman","ID":"P037"}},{"type":"Feature","geometry":{"type":"Polygon","coordinates":[[[113.66127,-7.059142],[113.661482,-7.059241],[113.661617,-7.058989],[113.661382,-7.058901],[113.66127,-7.059142]]]},"properties":{"area":"permukiman","ID":"P038"}},{"type":"Feature","geometry":{"type":"Polygon","coordinates":[[[113.660211,-7.056234],[113.659942,-7.056675],[113.660447,-7.056853],[113.660659,-7.056881],[113.660711,-7.056769],[113.66065,-7.056708],[113.660669,-7.056558],[113.660881,-7.056609],[113.661004,-7.056338],[113.660211,-7.056234]]]},"properties":{"area":"permukiman","ID":"P039"}},{"type":"Feature","geometry":{"type":"Polygon","coordinates":[[[113.66385,-7.051857],[113.663644,-7.052353],[113.664179,-7.052501],[113.664286,-7.051998],[113.66385,-7.051857]]]},"properties":{"area":"permukiman","ID":"P040"}},{"type":"Feature","geometry":{"type":"Polygon","coordinates":[[[113.66862,-7.050023],[113.668408,-7.050655],[113.668481,-7.050774],[113.66877,-7.05085],[113.669052,-7.050795],[113.669126,-7.050577],[113.669199,-7.050452],[113.669183,-7.049929],[113.66862,-7.050023]]]},"properties":{"area":"permukiman","ID":"P041"}},{"type":"Feature","geometry":{"type":"Polygon","coordinates":[[[113.666901,-7.054146],[113.666761,-7.054429],[113.667082,-7.05454],[113.667257,-7.05423],[113.666886,-7.054141],[113.666901,-7.054146]]]},"properties":{"area":"permukiman","ID":"P042"}},{"type":"Feature","geometry":{"type":"Polygon","coordinates":[[[113.667909,-7.054529],[113.667802,-7.054646],[113.667774,-7.054837],[113.667981,-7.054906],[113.668243,-7.054906],[113.668208,-7.054533],[113.667909,-7.054529]]]},"properties":{"area":"permukiman","ID":"P043"}},{"type":"Feature","geometry":{"type":"Polygon","coordinates":[[[113.667974,-7.053608],[113.667947,-7.053796],[113.668155,-7.053835],[113.668341,-7.053915],[113.668602,-7.053984],[113.668669,-7.05376],[113.667974,-7.053608]]]},"properties":{"area":"permukiman","ID":"P044"}},{"type":"Feature","geometry":{"type":"Polygon","coordinates":[[[113.658796,-7.056893],[113.658698,-7.057179],[113.658836,-7.057273],[113.65885,-7.057367],[113.659216,-7.057465],[113.659216,-7.05728],[113.659304,-7.057189],[113.659314,-7.057031],[113.658796,-7.056893]]]},"properties":{"area":"permukiman","ID":"P045"}},{"type":"Feature","geometry":{"type":"Polygon","coordinates":[[[113.658244,-7.057646],[113.658115,-7.057872],[113.658196,-7.057925],[113.658064,-7.058097],[113.657993,-7.058315],[113.65841,-7.058453],[113.658535,-7.058255],[113.658518,-7.058127],[113.658772,-7.05808],[113.658816,-7.057922],[113.658244,-7.057646]]]},"properties":{"area":"permukiman","ID":"P046"}},{"type":"Feature","geometry":{"type":"Polygon","coordinates":[[[113.658143,-7.058716],[113.658043,-7.059004],[113.658311,-7.059064],[113.658401,-7.058781],[113.658143,-7.058702],[113.658143,-7.058716]]]},"properties":{"area":"permukiman","ID":"P047"}},{"type":"Feature","geometry":{"type":"Polygon","coordinates":[[[113.658713,-7.058839],[113.658661,-7.059079],[113.658761,-7.059111],[113.659013,-7.059042],[113.659033,-7.058917],[113.658713,-7.058839]]]},"properties":{"area":"permukiman","ID":"P048"}},{"type":"Feature","geometry":{"type":"Polygon","coordinates":[[[113.659861,-7.057629],[113.659836,-7.05784],[113.660028,-7.057926],[113.660026,-7.058056],[113.660415,-7.058169],[113.660286,-7.057677],[113.659861,-7.057629]]]},"properties":{"area":"permukiman","ID":"P049"}},{"type":"Feature","geometry":{"type":"Polygon","coordinates":[[[113.660461,-7.058154],[113.660729,-7.058064],[113.661023,-7.058129],[113.661061,-7.057941],[113.660365,-7.057805],[113.660461,-7.058154]]]},"properties":{"area":"permukiman","ID":"P050"}}]}