{
"type": "FeatureCollection",
"name": "Titik_Area_Point",
"crs": { "type": "name", "properties": { "name": "urn:ogc:def:crs:OGC:1.3:CRS84" } },
"features": [
{ "type": "Feature", "properties": { "area": "sawah", "ID": "S001" }, "geometry": { "type": "Point", "coordinates": [ 113.681665450138127, -7.055427 ] } },
{ "type": "Feature", "properties": { "area": "sawah", "ID": "S002" }, "geometry": { "type": "Point", "coordinates": [ 113.680961799632342, -7.055431 ] } },
{ "type": "Feature", "properties": { "area": "sawah", "ID": "S013" }, "geometry": { "type": "Point", "coordinates": [ 113.67459177717393, -7.061315 ] } },
{ "type": "Feature", "properties": { "area": "sawah", "ID": "S014" }, "geometry": { "type": "Point", "coordinates": [ 113.676682382286089, -7.06228 ] } },
{ "type": "Feature", "properties": { "area": "sawah", "ID": "S015" }, "geometry": { "type": "Point", "coordinates": [ 113.67059046349182, -7.0638755 ] } },
{ "type": "Feature", "properties": { "area": "sawah", "ID": "S016" }, "geometry": { "type": "Point", "coordinates": [ 113.670468663851352, -7.06409 ] } },
{ "type": "Feature", "properties": { "area": "sawah", "ID": "S017" }, "geometry": { "type": "Point", "coordinates": [ 113.670571644238379, -7.064635 ] } },
{ "type": "Feature", "properties": { "area": "sawah", "ID": "S018" }, "geometry": { "type": "Point", "coordinates": [ 113.664586010703204, -7.0610855 ] } },
{ "type": "Feature", "properties": { "area": "sawah", "ID": "S019" }, "geometry": { "type": "Point", "coordinates": [ 113.66453474303546, -7.0607725 ] } },
{ "type": "Feature", "properties": { "area": "sawah", "ID": "S020" }, "geometry": { "type": "Point", "coordinates": [ 113.665534600877194, -7.059874 ] } },
{ "type": "Feature", "properties": { "area": "sawah", "ID": "S021" }, "geometry": { "type": "Point", "coordinates": [ 113.682318157178216, -7.060854 ] } },
{ "type": "Feature", "properties": { "area": "sawah", "ID": "S022" }, "geometry": { "type": "Point", "coordinates": [ 113.681866547117792, -7.061443 ] } },
{ "type": "Feature", "properties": { "area": "sawah", "ID": "S023" }, "geometry": { "type": "Point", "coordinates": [ 113.679880162118778, -7.0607 ] } },
{ "type": "Feature", "properties": { "area": "sawah", "ID": "S024" }, "geometry": { "type": "Point", "coordinates": [ 113.668406889097739, -7.061065 ] } },
{ "type": "Feature", "properties": { "area": "sawah", "ID": "S028" }, "geometry": { "type": "Point", "coordinates": [ 113.66697285585586, -7.058525 ] } },
{ "type": "Feature", "properties": { "area": "sawah", "ID": "S030" }, "geometry": { "type": "Point", "coordinates": [ 113.667321984475365, -7.0589465 ] } },
{ "type": "Feature", "properties": { "area": "sawah", "ID": "S031" }, "geometry": { "type": "Point", "coordinates": [ 113.665603453604234, -7.0555595 ] } },
{ "type": "Feature", "properties": { "area": "sawah", "ID": "S032" }, "geometry": { "type": "Point", "coordinates": [ 113.66462496803743, -7.0557025 ] } },
{ "type": "Feature", "properties": { "area": "sawah", "ID": "S036" }, "geometry": { "type": "Point", "coordinates": [ 113.666641047222214, -7.0534845 ] } },
{ "type": "Feature", "properties": { "area": "sawah", "ID": "S043" }, "geometry": { "type": "Point", "coordinates": [ 113.66115082406219, -7.0598775 ] } },
{ "type": "Feature", "properties": { "area": "sawah", "ID": "S044" }, "geometry": { "type": "Point", "coordinates": [ 113.661885546881678, -7.0560795 ] } },
{ "type": "Feature", "properties": { "area": "sawah", "ID": "S045" }, "geometry": { "type": "Point", "coordinates": [ 113.664213212451003, -7.0511565 ] } },
{ "type": "Feature", "properties": { "area": "sawah", "ID": "S049" }, "geometry": { "type": "Point", "coordinates": [ 113.67423337357954, -7.051568 ] } },
{ "type": "Feature", "properties": { "area": "sawah", "ID": "S050" }, "geometry": { "type": "Point", "coordinates": [ 113.675824436824428, -7.052301 ] } },
{ "type": "Feature", "properties": { "area": "sawah", "ID": "S003" }, "geometry": { "type": "Point", "coordinates": [ 113.681690385514031, -7.056021 ] } },
{ "type": "Feature", "properties": { "area": "sawah", "ID": "S004" }, "geometry": { "type": "Point", "coordinates": [ 113.680942341463421, -7.055909 ] } },
{ "type": "Feature", "properties": { "area": "sawah", "ID": "S005" }, "geometry": { "type": "Point", "coordinates": [ 113.679983592105259, -7.05634 ] } },
{ "type": "Feature", "properties": { "area": "sawah", "ID": "S006" }, "geometry": { "type": "Point", "coordinates": [ 113.678155142504664, -7.055709 ] } },
{ "type": "Feature", "properties": { "area": "sawah", "ID": "S007" }, "geometry": { "type": "Point", "coordinates": [ 113.67934778763339, -7.0569185 ] } },
{ "type": "Feature", "properties": { "area": "sawah", "ID": "S008" }, "geometry": { "type": "Point", "coordinates": [ 113.679054363636368, -7.055243 ] } },
{ "type": "Feature", "properties": { "area": "sawah", "ID": "S009" }, "geometry": { "type": "Point", "coordinates": [ 113.680751070463316, -7.057195 ] } },
{ "type": "Feature", "properties": { "area": "sawah", "ID": "S010" }, "geometry": { "type": "Point", "coordinates": [ 113.680151375, -7.056937 ] } },
{ "type": "Feature", "properties": { "area": "sawah", "ID": "S011" }, "geometry": { "type": "Point", "coordinates": [ 113.676697561604584, -7.0589915 ] } },
{ "type": "Feature", "properties": { "area": "sawah", "ID": "S012" }, "geometry": { "type": "Point", "coordinates": [ 113.67784953320313, -7.058997 ] } },
{ "type": "Feature", "properties": { "area": "permukiman", "ID": "P001" }, "geometry": { "type": "Point", "coordinates": [ 113.68177056034483, -7.0568315 ] } },
{ "type": "Feature", "properties": { "area": "permukiman", "ID": "P002" }, "geometry": { "type": "Point", "coordinates": [ 113.682200425039838, -7.056906 ] } },
{ "type": "Feature", "properties": { "area": "permukiman", "ID": "P003" }, "geometry": { "type": "Point", "coordinates": [ 113.682610960144928, -7.057575 ] } },
{ "type": "Feature", "properties": { "area": "permukiman", "ID": "P004" }, "geometry": { "type": "Point", "coordinates": [ 113.682043318784295, -7.057489 ] } },
{ "type": "Feature", "properties": { "area": "permukiman", "ID": "P005" }, "geometry": { "type": "Point", "coordinates": [ 113.684139876696833, -7.0556025 ] } },
{ "type": "Feature", "properties": { "area": "permukiman", "ID": "P006" }, "geometry": { "type": "Point", "coordinates": [ 113.683344955645168, -7.056003 ] } },
{ "type": "Feature", "properties": { "area": "permukiman", "ID": "P007" }, "geometry": { "type": "Point", "coordinates": [ 113.683876939071553, -7.055975 ] } },
{ "type": "Feature", "properties": { "area": "permukiman", "ID": "P008" }, "geometry": { "type": "Point", "coordinates": [ 113.684992156326032, -7.0561455 ] } },
{ "type": "Feature", "properties": { "area": "permukiman", "ID": "P009" }, "geometry": { "type": "Point", "coordinates": [ 113.675840775862071, -7.060702 ] } },
{ "type": "Feature", "properties": { "area": "permukiman", "ID": "P010" }, "geometry": { "type": "Point", "coordinates": [ 113.677318692827328, -7.0600515 ] } },
{ "type": "Feature", "properties": { "area": "permukiman", "ID": "P011" }, "geometry": { "type": "Point", "coordinates": [ 113.674078721153847, -7.0590485 ] } },
{ "type": "Feature", "properties": { "area": "permukiman", "ID": "P012" }, "geometry": { "type": "Point", "coordinates": [ 113.673070463773485, -7.0595395 ] } },
{ "type": "Feature", "properties": { "area": "sawah", "ID": "S025" }, "geometry": { "type": "Point", "coordinates": [ 113.66852417101228, -7.0606835 ] } },
{ "type": "Feature", "properties": { "area": "sawah", "ID": "S026" }, "geometry": { "type": "Point", "coordinates": [ 113.667006187984498, -7.060603 ] } },
{ "type": "Feature", "properties": { "area": "sawah", "ID": "S027" }, "geometry": { "type": "Point", "coordinates": [ 113.668276331159433, -7.059337 ] } },
{ "type": "Feature", "properties": { "area": "permukiman", "ID": "P013" }, "geometry": { "type": "Point", "coordinates": [ 113.673159868789838, -7.060306 ] } },
{ "type": "Feature", "properties": { "area": "sawah", "ID": "S029" }, "geometry": { "type": "Point", "coordinates": [ 113.667443026268117, -7.0585025 ] } },
{ "type": "Feature", "properties": { "area": "permukiman", "ID": "P014" }, "geometry": { "type": "Point", "coordinates": [ 113.670064531057804, -7.0624195 ] } },
{ "type": "Feature", "properties": { "area": "permukiman", "ID": "P015" }, "geometry": { "type": "Point", "coordinates": [ 113.671466874125883, -7.061593 ] } },
{ "type": "Feature", "properties": { "area": "permukiman", "ID": "P016" }, "geometry": { "type": "Point", "coordinates": [ 113.673183479276162, -7.063723 ] } },
{ "type": "Feature", "properties": { "area": "sawah", "ID": "S033" }, "geometry": { "type": "Point", "coordinates": [ 113.663586242818056, -7.055976 ] } },
{ "type": "Feature", "properties": { "area": "sawah", "ID": "S034" }, "geometry": { "type": "Point", "coordinates": [ 113.664780266422568, -7.055229 ] } },
{ "type": "Feature", "properties": { "area": "sawah", "ID": "S035" }, "geometry": { "type": "Point", "coordinates": [ 113.665604509668498, -7.053416 ] } },
{ "type": "Feature", "properties": { "area": "permukiman", "ID": "P017" }, "geometry": { "type": "Point", "coordinates": [ 113.66536381481194, -7.06123 ] } },
{ "type": "Feature", "properties": { "area": "sawah", "ID": "S037" }, "geometry": { "type": "Point", "coordinates": [ 113.67257103735632, -7.0525855 ] } },
{ "type": "Feature", "properties": { "area": "sawah", "ID": "S038" }, "geometry": { "type": "Point", "coordinates": [ 113.672479387740452, -7.0528725 ] } },
{ "type": "Feature", "properties": { "area": "sawah", "ID": "S039" }, "geometry": { "type": "Point", "coordinates": [ 113.6727662113733, -7.0530745 ] } },
{ "type": "Feature", "properties": { "area": "sawah", "ID": "S040" }, "geometry": { "type": "Point", "coordinates": [ 113.661611599919667, -7.059323 ] } },
{ "type": "Feature", "properties": { "area": "sawah", "ID": "S041" }, "geometry": { "type": "Point", "coordinates": [ 113.659741844777386, -7.0592185 ] } },
{ "type": "Feature", "properties": { "area": "sawah", "ID": "S042" }, "geometry": { "type": "Point", "coordinates": [ 113.659476997727637, -7.059373 ] } },
{ "type": "Feature", "properties": { "area": "permukiman", "ID": "P018" }, "geometry": { "type": "Point", "coordinates": [ 113.679226390446971, -7.059907 ] } },
{ "type": "Feature", "properties": { "area": "permukiman", "ID": "P019" }, "geometry": { "type": "Point", "coordinates": [ 113.678636169294222, -7.0599115 ] } },
{ "type": "Feature", "properties": { "area": "permukiman", "ID": "P020" }, "geometry": { "type": "Point", "coordinates": [ 113.683007558258211, -7.0604665 ] } },
{ "type": "Feature", "properties": { "area": "sawah", "ID": "S046" }, "geometry": { "type": "Point", "coordinates": [ 113.664075832355792, -7.051645 ] } },
{ "type": "Feature", "properties": { "area": "sawah", "ID": "S047" }, "geometry": { "type": "Point", "coordinates": [ 113.668507079748423, -7.0515195 ] } },
{ "type": "Feature", "properties": { "area": "sawah", "ID": "S048" }, "geometry": { "type": "Point", "coordinates": [ 113.667333353603595, -7.0508525 ] } },
{ "type": "Feature", "properties": { "area": "permukiman", "ID": "P021" }, "geometry": { "type": "Point", "coordinates": [ 113.666910927524441, -7.0610475 ] } },
{ "type": "Feature", "properties": { "area": "permukiman", "ID": "P022" }, "geometry": { "type": "Point", "coordinates": [ 113.667325932367149, -7.06095 ] } },
{ "type": "Feature", "properties": { "area": "permukiman", "ID": "P023" }, "geometry": { "type": "Point", "coordinates": [ 113.666682537593985, -7.060611 ] } },
{ "type": "Feature", "properties": { "area": "permukiman", "ID": "P024" }, "geometry": { "type": "Point", "coordinates": [ 113.666541867298577, -7.0609475 ] } },
{ "type": "Feature", "properties": { "area": "permukiman", "ID": "P025" }, "geometry": { "type": "Point", "coordinates": [ 113.666846418499745, -7.059001 ] } },
{ "type": "Feature", "properties": { "area": "permukiman", "ID": "P026" }, "geometry": { "type": "Point", "coordinates": [ 113.667998356617659, -7.056177 ] } },
{ "type": "Feature", "properties": { "area": "permukiman", "ID": "P027" }, "geometry": { "type": "Point", "coordinates": [ 113.664745550143266, -7.0561685 ] } },
{ "type": "Feature", "properties": { "area": "permukiman", "ID": "P028" }, "geometry": { "type": "Point", "coordinates": [ 113.663905302583032, -7.0558245 ] } },
{ "type": "Feature", "properties": { "area": "permukiman", "ID": "P029" }, "geometry": { "type": "Point", "coordinates": [ 113.664093885416662, -7.056295 ] } },
{ "type": "Feature", "properties": { "area": "permukiman", "ID": "P030" }, "geometry": { "type": "Point", "coordinates": [ 113.663684029073352, -7.056962 ] } },
{ "type": "Feature", "properties": { "area": "permukiman", "ID": "P031" }, "geometry": { "type": "Point", "coordinates": [ 113.666120243439963, -7.053436 ] } },
{ "type": "Feature", "properties": { "area": "permukiman", "ID": "P032" }, "geometry": { "type": "Point", "coordinates": [ 113.666411733846473, -7.05302 ] } },
{ "type": "Feature", "properties": { "area": "permukiman", "ID": "P033" }, "geometry": { "type": "Point", "coordinates": [ 113.666501791666661, -7.0537705 ] } },
{ "type": "Feature", "properties": { "area": "permukiman", "ID": "P034" }, "geometry": { "type": "Point", "coordinates": [ 113.665894963869462, -7.0537665 ] } },
{ "type": "Feature", "properties": { "area": "permukiman", "ID": "P035" }, "geometry": { "type": "Point", "coordinates": [ 113.671701400974769, -7.0526625 ] } },
{ "type": "Feature", "properties": { "area": "permukiman", "ID": "P036" }, "geometry": { "type": "Point", "coordinates": [ 113.671468505076859, -7.053387 ] } },
{ "type": "Feature", "properties": { "area": "permukiman", "ID": "P037" }, "geometry": { "type": "Point", "coordinates": [ 113.670973214437225, -7.054054 ] } },
{ "type": "Feature", "properties": { "area": "permukiman", "ID": "P038" }, "geometry": { "type": "Point", "coordinates": [ 113.661440784862179, -7.0590655 ] } },
{ "type": "Feature", "properties": { "area": "permukiman", "ID": "P039" }, "geometry": { "type": "Point", "coordinates": [ 113.660517269326675, -7.056448 ] } },
{ "type": "Feature", "properties": { "area": "permukiman", "ID": "P040" }, "geometry": { "type": "Point", "coordinates": [ 113.663982980654382, -7.0521755 ] } },
{ "type": "Feature", "properties": { "area": "permukiman", "ID": "P041" }, "geometry": { "type": "Point", "coordinates": [ 113.668870242663445, -7.0502375 ] } },
{ "type": "Feature", "properties": { "area": "permukiman", "ID": "P042" }, "geometry": { "type": "Point", "coordinates": [ 113.667005526629993, -7.0543295 ] } },
{ "type": "Feature", "properties": { "area": "permukiman", "ID": "P043" }, "geometry": { "type": "Point", "coordinates": [ 113.668007782171571, -7.0547415 ] } },
{ "type": "Feature", "properties": { "area": "permukiman", "ID": "P044" }, "geometry": { "type": "Point", "coordinates": [ 113.668306600588906, -7.053778 ] } },
{ "type": "Feature", "properties": { "area": "permukiman", "ID": "P045" }, "geometry": { "type": "Point", "coordinates": [ 113.659016336549513, -7.057105 ] } },
{ "type": "Feature", "properties": { "area": "permukiman", "ID": "P046" }, "geometry": { "type": "Point", "coordinates": [ 113.658465052767156, -7.0580025 ] } },
{ "type": "Feature", "properties": { "area": "permukiman", "ID": "P047" }, "geometry": { "type": "Point", "coordinates": [ 113.658223627956914, -7.0588925 ] } },
{ "type": "Feature", "properties": { "area": "permukiman", "ID": "P048" }, "geometry": { "type": "Point", "coordinates": [ 113.658852779166665, -7.0589795 ] } },
{ "type": "Feature", "properties": { "area": "permukiman", "ID": "P049" }, "geometry": { "type": "Point", "coordinates": [ 113.660136006097559, -7.057883 ] } },
{ "type": "Feature", "properties": { "area": "permukiman", "ID": "P050" }, "geometry": { "type": "Point", "coordinates": [ 113.660733947898251, -7.0580025 ] } }
]
}
